satname,norad_id,inclination_deg,eccentricity,mean_motion_rev_per_day,perigee_km,apogee_km,l1,l2
STARLINK-1159,45057,53.0575,0.0001379,15.06395331,546.2708602483108,548.1808753272462,1 45057U 20006P   25260.51556708 -.00001135  00000+0 -57309-4 0  9990,2 45057  53.0575 344.0270 0001379  92.5251 267.5895 15.06395331310363
STARLINK-1166,45060,53.0553,0.0001062,15.06381895,546.5315698015766,548.0025256213112,1 45060U 20006S   25260.46027101 -.00003371  00000+0 -20765-3 0  9997,2 45060  53.0553 344.2789 0001062  95.0645 265.0465 15.06381895310359
STARLINK-1169,45061,53.0562,0.0001279,15.06387295,546.3647401462076,548.1362542679935,1 45061U 20006T   25260.53399799 -.00000903  00000+0 -41744-4 0  9990,2 45061  53.0562 343.9488 0001279  88.9610 271.1526 15.06387295310362
STARLINK-1171,45062,53.0573,0.0001214,15.06386948,546.4108185560053,548.0923028985508,1 45062U 20006U   25260.51925330 -.00000171  00000+0  74161-5 0  9991,2 45062  53.0573 344.0079 0001214  82.6337 277.4790 15.06386948310365
STARLINK-1133,45064,53.0563,0.0001241,15.06387836,546.3893987145757,548.1082794798403,1 45064U 20006W   25261.19561907 -.00001367  00000+0 -72897-4 0  9996,2 45064  53.0563 320.9737 0001241  82.6997 277.4133 15.06387836310742
STARLINK-1150,45067,53.0411,0.000244,15.94522427,288.01848583878837,291.2723636620667,1 45067U 20006Z   25261.25011574  .00337132  55594-4  87686-3 0  9990,2 45067  53.0411 268.3132 0002440  11.6444  82.5374 15.94522427  5974
STARLINK-1167,45071,53.0557,0.0001463,15.06388599,546.2333169754802,548.2596841877503,1 45071U 20006AD  25261.15507151 -.00000623  00000+0 -22965-4 0  9996,2 45071  53.0557 321.1604 0001463  92.0718 268.0439 15.06388599310732
STARLINK-1168,45072,53.0549,8.21e-05,15.06404387,546.6295424350201,547.766682460483,1 45072U 20006AE  25261.15874650 -.00006569  00000+0 -42245-3 0  9995,2 45072  53.0549 321.1420 0000821  98.8802 261.2280 15.06404387310738
STARLINK-1172,45074,53.0559,0.0001274,15.06408372,546.3036129455595,548.0681852202451,1 45074U 20006AG  25259.51113285  .00001139  00000+0  95299-4 0  9998,2 45074  53.0559 328.5392 0001274  86.3219 273.7916 15.06408372310481
STARLINK-1153,45080,53.0555,0.0001458,15.06389476,546.234092147838,548.2535331928138,1 45080U 20006AN  25261.14770837 -.00000505  00000+0 -15024-4 0  9995,2 45080  53.0555 321.1929 0001458  83.8126 276.3030 15.06389476310739
STARLINK-1151,45081,53.0536,0.0001025,15.06391071,546.5290731402138,547.948775204668,1 45081U 20006AP  25261.19931253  .00000520  00000+0  53814-4 0  9996,2 45081  53.0536 321.0341 0001025  73.2264 286.8837 15.06391071310748
STARLINK-1190,45083,53.0497,0.000801,15.72221831,347.15714392900827,357.9397019765793,1 45083U 20006AR  25259.16770193  .00104750  00000+0  77162-3 0  9997,2 45083  53.0497 304.7570 0008010  15.6901 344.4364 15.72221831310797
STARLINK-1173,45084,53.045,0.0009401,15.80999059,321.31008789098723,333.9182412305936,1 45084U 20006AS  25261.25011574  .00161299  00000+0  79872-3 0  9993,2 45084  53.0450 258.5484 0009401   4.7766  41.4827 15.80999059  6041
STARLINK-1179,45085,53.0386,0.0004465,15.93040339,290.80136171852064,296.7593839324545,1 45085U 20006AT  25261.25011574  .00306938  47119-4  86383-3 0  9997,2 45085  53.0386 249.4338 0004465  21.8942 216.8978 15.93040339  6067
STARLINK-1185,45087,53.0558,0.0001272,15.063948,546.3465888713918,548.10840159898,1 45087U 20006AV  25261.10899426 -.00000612  00000+0 -22230-4 0  9990,2 45087  53.0558 301.3622 0001272  90.0891 270.0243 15.06394800311018
STARLINK-1183,45088,53.0537,0.0001759,15.06394639,546.0098169783705,548.4461603813879,1 45088U 20006AW  25261.13111247 -.00000240  00000+0  27914-5 0  9993,2 45088  53.0537 301.2641 0001759  79.8711 280.2476 15.06394639311013
STARLINK-1176,45090,53.0518,0.0005144,15.78562151,331.0607457423521,337.96672081674933,1 45090U 20006AY  25261.25011574  .00204174  00000+0  11252-2 0  9997,2 45090  53.0518 256.2156 0005144 346.3976 243.0721 15.78562151  5938
STARLINK-1142,45093,53.0384,0.0006328,15.49588678,413.6278823981538,422.2289828096564,1 45093U 20006BB  25260.36629151  .00055684  00000+0  99161-3 0  9993,2 45093  53.0384 253.2567 0006328  44.1273 316.0238 15.49588678311623
STARLINK-1146,45094,53.0451,0.0004353,15.94259828,287.4747908091849,293.28039961577724,1 45094U 20006BC  25261.25011574  .00352373  59644-4  92849-3 0  9991,2 45094  53.0451 250.5331 0004353   8.4921 187.1017 15.94259828  6060
STARLINK-1147,45095,53.0407,0.0009096,15.90029134,296.1248205990132,308.2776919548314,1 45095U 20006BD  25261.25011574  .00204569  26323-4  67439-3 0  9990,2 45095  53.0407 253.2874 0009096  10.3764 197.8988 15.90029134  5953
STARLINK-1152,45096,53.0462,0.0005529,15.2062261,500.15630379698723,507.766528225412,1 45096U 20006BE  25261.06408369  .00026582  00000+0  12068-2 0  9995,2 45096  53.0462 288.6451 0005529  37.8282 322.3101 15.20622610311182
STARLINK-1184,45098,53.053,7.75e-05,15.06385542,546.7191520329325,547.7925879277791,1 45098U 20006BG  25261.14586268 -.00001282  00000+0 -67265-4 0  9994,2 45098  53.0530 301.1965 0000775  67.7128 292.3943 15.06385542311016
STARLINK-1193,45100,53.0617,7.28e-05,15.06404352,546.6940553131963,547.7023841211876,1 45100U 20006BJ  25261.14217537  .00002026  00000+0  15480-3 0  9994,2 45100  53.0617 301.2185 0000728  36.9428 323.1611 15.06404352311016
STARLINK-1143,45179,53.0567,0.0004487,15.33113527,463.4583807084291,469.6007844996584,1 45179U 20012B   25260.75550803  .00072753  00000+0  22318-2 0  9990,2 45179  53.0567  76.0645 0004487 149.8426 210.2833 15.33113527309157
STARLINK-1201,45182,53.0358,0.0004313,16.0877868,247.33701294717685,253.05461283157638,1 45182U 20012E   25261.37754791  .00654563  23297-3  73478-3 0  9991,2 45182  53.0358  23.3721 0004313 352.8208   7.2763 16.08778680309786
STARLINK-1202,45183,53.0545,0.0001305,15.06400903,546.3050327490719,548.1125480003602,1 45183U 20012F   25260.87311213  .00001831  00000+0  14179-3 0  9994,2 45183  53.0545 102.4230 0001305  92.0686 268.0453 15.06400903308790
STARLINK-1216,45185,53.0537,0.0001346,15.06390454,546.3086593539765,548.1729710618301,1 45185U 20012H   25260.79939378 -.00000254  00000+0  18686-5 0  9993,2 45185  53.0537 102.7492 0001346  82.1057 278.0084 15.06390454308726
STARLINK-1224,45186,53.0336,0.0004729,16.13785854,233.34995524549504,239.60605811881578,1 45186U 20012J   25261.35974722  .00883463  48625-3  71059-3 0  9999,2 45186  53.0336  44.3969 0004729 335.5802  24.5008 16.13785854309581
STARLINK-1225,45187,53.0537,0.0001327,15.0639243,546.315762162737,548.153755827575,1 45187U 20012K   25260.95051031  .00003707  00000+0  26767-3 0  9996,2 45187  53.0537 102.0739 0001327  84.0761 276.0380 15.06392430308797
STARLINK-1230,45189,53.0539,0.0001456,15.0639676,546.2131558935653,548.2298202852962,1 45189U 20012M   25260.95419055 -.00000188  00000+0  62879-5 0  9999,2 45189  53.0539 102.0606 0001456  93.3551 266.7604 15.06396760306026
STARLINK-1234,45190,53.0562,0.000151,15.06399424,546.1675953970635,548.2590511946992,1 45190U 20012N   25260.77357889 -.00000700  00000+0 -28092-4 0  9996,2 45190  53.0562  62.8680 0001510  99.5614 260.5546 15.06399424309231
STARLINK-1240,45194,53.0383,0.0001885,16.00129764,272.8050940843459,275.3129719888011,1 45194U 20012S   25260.70780383  .00441564  95026-4  84028-3 0  9994,2 45194  53.0383  49.2204 0001885  24.6315 335.4804 16.00129764309411
STARLINK-1244,45196,53.0361,0.0002852,16.06488307,254.60213659307374,258.38653030567366,1 45196U 20012U   25261.65449525  .00558066  16260-3  72504-3 0  9995,2 45196  53.0361  43.6348 0002852 333.6030 122.7282 16.06488307308747
STARLINK-1269,45197,53.055,0.0001493,15.0640107,546.17432449424,548.2422325944135,1 45197U 20012V   25260.96525514  .00000765  00000+0  70255-4 0  9993,2 45197  53.0550 102.0105 0001493  91.0618 269.0542 15.06401070308774
STARLINK-1154,45198,53.0568,0.0001534,15.06410559,546.1168528085682,548.2415398175981,1 45198U 20012W   25260.75697513 -.00001778  00000+0 -10046-3 0  9998,2 45198  53.0568  82.9459 0001534 100.6241 259.4921 15.06410559308997
STARLINK-1199,45201,53.0554,0.0001497,15.06396876,546.1844064524412,548.2578586773307,1 45201U 20012Z   25260.76804853 -.00000620  00000+0 -22699-4 0  9994,2 45201  53.0554  82.8956 0001497  85.5207 274.5953 15.06396876309055
STARLINK-1206,45204,53.0376,0.0006388,16.09125684,245.0092859282413,253.47642643249765,1 45204U 20012AC  25260.96032652  .01577315  17546-2  17683-2 0  9999,2 45204  53.0376  28.6598 0006388 289.5194  70.5149 16.09125684309844
STARLINK-1208,45205,53.0386,6.58e-05,15.95704292,285.9141476485129,286.79119448922575,1 45205U 20012AD  25261.25011574  .00475314  10303-3  11576-2 0  9998,2 45205  53.0386  28.4753 0000658  61.9345 154.8268 15.95704292  5855
STARLINK-1209,45206,53.0549,0.0001319,15.0640957,546.2687778157906,548.0956770279845,1 45206U 20012AE  25260.77726319  .00000887  00000+0  78436-4 0  9993,2 45206  53.0549  62.8546 0001319  96.3561 263.7578 15.06409570308387
STARLINK-1210,45207,53.0283,0.0010689,15.46171885,420.6618826460608,435.2119074188613,1 45207U 20012AF  25261.00003472  .00012281  00000+0  25414-3 0  9997,2 45207  53.0283  35.6123 0010689 242.3624  49.6257 15.46171885  5912
STARLINK-1231,45212,53.0523,0.0003567,15.08668569,537.7996397049856,542.7352294286056,1 45212U 20012AL  25260.76990812  .00020354  00000+0  12991-2 0  9993,2 45212  53.0523  82.4803 0003567 151.0300 209.0888 15.08668569309012
STARLINK-1271,45217,53.0558,0.0001514,15.06394075,546.1812167484459,548.2782177904355,1 45217U 20012AR  25260.81966239 -.00001168  00000+0 -59513-4 0  9997,2 45217  53.0558  82.6621 0001514  93.1026 267.0137 15.06394075309068
STARLINK-1191,45222,53.0549,0.0001402,15.06399672,546.2416292024573,548.1834972199813,1 45222U 20012AW  25260.76251960 -.00000249  00000+0  21557-5 0  9991,2 45222  53.0549  62.9174 0001402  89.9961 270.1189 15.06399672309335
